XRISM                   
1 57800U 23137A   24081.75852907  .00007574  00000+0  58816-3 0  9997
2 57800  31.0023 208.6368 0010154  62.7475 297.4194 14.99985303 29464
